line1,line2,classification,launch_year,launch_number,launch_piece,epoch_year,epoch_day,mean_motion_dot,mean_motion_ddot,bstar,ephemeris_type,element_number,satellite_number,inclination,ra_of_asc_node,eccentricity,arg_of_perigee,mean_anomaly,mean_motion,rev_at_epoch,datetime,x,y,z,cartesian_cords,NORAD_CAT_ID,OBJECT_TYPE,SATNAME,SITE,Operator/Owner,Users,Purpose,anom_inclination,anom_ra_of_asc_node,anom_eccentricity,anom_arg_of_perigee,anom_mean_anomaly,anom_mean_motion,anom_count
1 01570U 65070A   22037.95215150 -.00000084  00000-0  73728-4 0  9997,2 01570  56.0562 107.8934 0100568 325.6732 206.6840 12.52767198581940,U,65,070,A,22,37.9521515,-8.4e-07,0.0,0.0,0,999,1570,56.0562,107.8934,0.0100568,325.6732,206.684,12.52767198,58194,2022-02-06 22:51:05.889600,1778.6036387190668,-7644.292682978858,915.9958636008264,[ 1778.60363872 -7644.29268298   915.9958636 ],1570,PAYLOAD,COSMOS 80,TTMTR,0,0,0,0.0,0.0,0.0,0.0,0.0,0.0,0.0
1  1570U 65070A   22037.54034274 -.00000081  00000-0  90924-4 0  9992,2  1570  56.0562 109.0106 0100545 325.1085 149.4491 12.52767183582330,U,65,070,A,22,37.54034274,-8.1e-07,0.0,0.0,0,999,1570,56.0562,109.0106,0.0100545,325.1085,149.4491,12.52767183,58233,2022-02-06 12:58:05.612736,-2688.439202058936,-4460.514176584765,5930.82968858058,[-2688.43920206 -4460.51417658  5930.82968858],1570,PAYLOAD,COSMOS 80,TTMTR,0,0,0,0.0,0.0,0.0,0.0,0.0,0.0,0.0
1 01570U 65070A   22036.48011163 -.00000076  00000-0  12716-3 0  9992,2 01570  56.0562 111.8870 0100504 323.6526  47.8674 12.52767150581761,U,65,070,A,22,36.48011163,-7.6e-07,0.0,0.0,0,999,1570,56.0562,111.887,0.0100504,323.6526,47.8674,12.5276715,58176,2022-02-05 11:31:21.644832,-3655.45129690285,6725.508156626771,1381.375556944245,[-3655.4512969   6725.50815663  1381.37555694],1570,PAYLOAD,COSMOS 80,TTMTR,0,0,0,0.0,0.0,0.0,0.0,0.0,0.0,0.0
1 01570U 65070A   22035.52243233 -.00000071  00000-0  15391-3 0  9998,2 01570  56.0562 114.4852 0100463 322.3400  48.7864 12.52767142581640,U,65,070,A,22,35.52243233,-7.1e-07,0.0,0.0,0,999,1570,56.0562,114.4852,0.0100463,322.34,48.7864,12.52767142,58164,2022-02-04 12:32:18.153312,-3935.8070067759218,6575.137138763232,1340.1042209674576,[-3935.80700678  6575.13713876  1340.10422097],1570,PAYLOAD,COSMOS 80,TTMTR,0,0,0,0.0,0.0,0.0,0.0,0.0,0.0,0.0
1  1570U 65070A   22035.20454282 -.00000071  00000-0  15438-3 0  9993,2  1570  56.0562 115.3476 0100451 321.9039  55.1225 12.52767142582040,U,65,070,A,22,35.20454282,-7.1e-07,0.0,0.0,0,999,1570,56.0562,115.3476,0.0100451,321.9039,55.1225,12.52767142,58204,2022-02-04 04:54:32.499648,-4344.874142920012,6145.310842124069,1993.1904369774438,[-4344.87414292  6145.31084212  1993.19043698],1570,PAYLOAD,COSMOS 80,TTMTR,0,0,0,0.0,0.0,0.0,0.0,0.0,0.0,0.0
1 01570U 65070A   22034.50201272 -.00000074  00000-0  13654-3 0  9995,2 01570  56.0562 117.2536 0100414 320.9404 126.7510 12.52767112581512,U,65,070,A,22,34.50201272,-7.4e-07,0.0,0.0,0,999,1570,56.0562,117.2536,0.0100414,320.9404,126.751,12.52767112,58151,2022-02-03 12:02:53.899008,-3990.6514258508096,-1822.5918106223376,6535.614854668061,[-3990.65142585 -1822.59181062  6535.61485467],1570,PAYLOAD,COSMOS 80,TTMTR,0,0,0,0.0,0.0,0.0,0.0,0.0,0.0,0.0
1 01570U 65070A   22033.52768530 -.00000081  00000-0  96160-4 0  9993,2 01570  56.0561 119.8969 0100374 319.6026  52.5905 12.52767080581393,U,65,070,A,22,33.5276853,-8.1e-07,0.0,0.0,0,999,1570,56.0561,119.8969,0.0100374,319.6026,52.5905,12.5276708,58139,2022-02-02 12:39:52.009920,-4596.082806186349,6108.309386859255,1464.8274930552307,[-4596.08280619  6108.30938686  1464.82749306],1570,PAYLOAD,COSMOS 80,TTMTR,0,0,0,0.0,0.0,0.0,0.0,0.0,0.0,0.0
1  1570U 65070A   22033.05934431 -.00000085  00000-0  68896-4 0  9995,2  1570  56.0561 121.1676 0100355 318.9601 100.3992 12.52767073581776,U,65,070,A,22,33.05934431,-8.5e-07,0.0,0.0,0,999,1570,56.0561,121.1676,0.0100355,318.9601,100.3992,12.52767073,58177,2022-02-02 01:25:27.348384,-5242.475825306405,1363.3406957359246,5668.056861388601,[-5242.47582531  1363.34069574  5668.05686139],1570,PAYLOAD,COSMOS 80,TTMTR,0,0,0,0.0,0.0,0.0,0.0,0.0,0.0,0.0
1 01570U 65070A   22032.49035427 -.00000089  00000-0  40991-4 0  9999,2 01570  56.0561 122.7112 0100327 318.1783  54.2877 12.52767077581267,U,65,070,A,22,32.49035427,-8.9e-07,0.0,0.0,0,999,1570,56.0561,122.7112,0.0100327,318.1783,54.2877,12.52767077,58126,2022-02-01 11:46:06.608928,-4904.963186159388,5857.287030168352,1497.967848267122,[-4904.96318616  5857.28703017  1497.96784827],1570,PAYLOAD,COSMOS 80,TTMTR,0,0,0,0.0,0.0,0.0,0.0,0.0,0.0,0.0
1 01570U 65070A   22031.63540066 -.00000101  00000-0 -30579-4 0  9991,2 01570  56.0561 125.0307 0100288 317.0074 158.4932 12.52767039581151,U,65,070,A,22,31.63540066,-1.01e-06,0.0,-3.0579e-05,0,999,1570,56.0561,125.0307,0.0100288,317.0074,158.4932,12.52767039,58115,2022-01-31 15:14:58.617024,-1276.8122132909216,-5101.067351414568,5893.211567141638,[-1276.81221329 -5101.06735141  5893.21156714],1570,PAYLOAD,COSMOS 80,TTMTR,0,0,0,0.0,0.0,0.0,0.0,0.0,0.0,0.0
1 01570U 65070A   22031.55048830 -.00000103  00000-0 -41361-4 0  9997,2 01570  56.0561 125.2611 0100286 316.8900 135.5442 12.52767034581140,U,65,070,A,22,31.5504883,-1.03e-06,0.0,-4.1361e-05,0,999,1570,56.0561,125.2611,0.0100286,316.89,135.5442,12.52767034,58114,2022-01-31 13:12:42.189120,-3332.140016512241,-2883.8928175437786,6533.115942466569,[-3332.14001651 -2883.89281754  6533.11594247],1570,PAYLOAD,COSMOS 80,TTMTR,0,0,0,0.0,0.0,0.0,0.0,0.0,0.0,0.0
1  1570U 65070A   22030.68550630 -.00000097  00000-0 -86602-5 0  9996,2  1570  56.0560 127.6077 0100266 315.6969 194.5299 12.52767041581470,U,65,070,A,22,30.6855063,-9.7e-07,0.0,-8.6602e-06,0,999,1570,56.056,127.6077,0.0100266,315.6969,194.5299,12.52767041,58147,2022-01-30 16:27:07.744320,2403.6874625682726,-6782.493457247893,3271.5337446821372,[ 2403.68746257 -6782.49345725  3271.53374468],1570,PAYLOAD,COSMOS 80,TTMTR,0,0,0,0.0,0.0,0.0,0.0,0.0,0.0,0.0
1 01570U 65070A   22030.59449968 -.00000112  00000-0 -99243-4 0  9999,2 01570  56.0561 127.8548 0100247 315.5777 144.0903 12.52767018581028,U,65,070,A,22,30.59449968,-1.12e-06,0.0,-9.924300000000001e-05,0,999,1570,56.0561,127.8548,0.0100247,315.5777,144.0903,12.52767018,58102,2022-01-30 14:16:04.772352,-2557.6558789140654,-3766.083983583301,6441.723517640474,[-2557.65587891 -3766.08398358  6441.72351764],1570,PAYLOAD,COSMOS 80,TTMTR,0,0,0,0.0,0.0,0.0,0.0,0.0,0.0,0.0
1 01570U 65070A   22029.64057220 -.00000113  00000-0 -10290-3 0  9994,2 01570  56.0561 130.4428 0100207 314.2671 161.9333 12.52767043580909,U,65,070,A,22,29.6405722,-1.13e-06,0.0,-0.00010290000000000001,0,999,1570,56.0561,130.4428,0.0100207,314.2671,161.9333,12.52767043,58090,2022-01-29 15:22:25.438080,-722.862499728689,-5247.07855361049,5860.994482420542,[ -722.86249973 -5247.07855361  5860.99448242],1570,PAYLOAD,COSMOS 80,TTMTR,0,0,0,0.0,0.0,0.0,0.0,0.0,0.0,0.0
1 01570U 65070A   22029.53760271 -.00000113  00000-0 -10781-3 0  9994,2 01570  56.0561 130.7222 0100203 314.1250  57.5476 12.52767046580891,U,65,070,A,22,29.53760271,-1.13e-06,0.0,-0.00010781,0,999,1570,56.0561,130.7222,0.0100203,314.125,57.5476,12.52767046,58089,2022-01-29 12:54:08.874144,-5648.61943363816,5172.650491095765,1416.9269882114481,[-5648.61943364  5172.6504911   1416.92698821],1570,PAYLOAD,COSMOS 80,TTMTR,0,0,0,0.0,0.0,0.0,0.0,0.0,0.0,0.0
1  1570U 65070A   22028.59859609 -.00000109  00000-0 -78250-4 0  9994,2  1570  56.0561 133.2697 0100167 312.8358 142.6817 12.52767072581219,U,65,070,A,22,28.59859609,-1.09e-06,0.0,-7.825e-05,0,999,1570,56.0561,133.2697,0.0100167,312.8358,142.6817,12.52767072,58121,2022-01-28 14:21:58.702176,-2607.671369574792,-3610.6205531269597,6508.759826382498,[-2607.67136957 -3610.62055313  6508.75982638],1570,PAYLOAD,COSMOS 80,TTMTR,0,0,0,0.0,0.0,0.0,0.0,0.0,0.0,0.0
1 01570U 65070A   22028.43357615 -.00000109  00000-0 -81610-4 0  9991,2 01570  56.0561 133.7173 0100160 312.6090 118.4516 12.52767080580751,U,65,070,A,22,28.43357615,-1.09e-06,0.0,-8.161000000000001e-05,0,999,1570,56.0561,133.7173,0.010016,312.609,118.4516,12.5276708,58075,2022-01-28 10:24:20.979360,-4687.638295867463,-1111.5339282930902,6213.596903210801,[-4687.63829587 -1111.53392829  6213.59690321],1570,PAYLOAD,COSMOS 80,TTMTR,0,0,0,0.0,0.0,0.0,0.0,0.0,0.0,0.0
1 01570U 65070A   22027.64490876 -.00000102  00000-0 -40435-4 0  9993,2 01570  56.0560 135.8570 0100123 311.5253 161.6076 12.52767089580651,U,65,070,A,22,27.64490876,-1.02e-06,0.0,-4.0435e-05,0,999,1570,56.056,135.857,0.0100123,311.5253,161.6076,12.52767089,58065,2022-01-27 15:28:40.116864,-567.5690565052096,-5096.182903109652,6008.808262744089,[ -567.56905651 -5096.18290311  6008.80826274],1570,PAYLOAD,COSMOS 80,TTMTR,0,0,0,0.0,0.0,0.0,0.0,0.0,0.0,0.0
1 01570U 65070A   22027.55885472 -.00000103  00000-0 -41221-4 0  9998,2 01570  56.0560 136.0905 0100120 311.4065 133.5095 12.52767089580641,U,65,070,A,22,27.55885472,-1.03e-06,0.0,-4.1221000000000004e-05,0,999,1570,56.056,136.0905,0.010012,311.4065,133.5095,12.52767089,58064,2022-01-27 13:24:45.047808,-3465.4675406132,-2738.1006616501063,6524.0167837473655,[-3465.46754061 -2738.10066165  6524.01678375],1570,PAYLOAD,COSMOS 80,TTMTR,0,0,0,0.0,0.0,0.0,0.0,0.0,0.0,0.0
1  1570U 65070A   22026.58506657 -.00000093  00000-0  20904-4 0  9997,2  1570  56.0559 138.7323 0100090 310.0655  61.7846 12.52767091580962,U,65,070,A,22,26.58506657,-9.3e-07,0.0,0.0,0,999,1570,56.0559,138.7323,0.010009,310.0655,61.7846,12.52767091,58096,2022-01-26 14:02:29.751648,-6324.218604192064,4320.982966519834,1443.3629039486332,[-6324.21860419  4320.98296652  1443.36290395],1570,PAYLOAD,COSMOS 80,TTMTR,0,0,0,0.0,0.0,0.0,0.0,0.0,0.0,0.0
